     2              NAVIGATION DATA                         RINEX VERSION / TYPE
CCRINEXN V1.6.0 UX  CDDIS               02-JUL-10 15:33     PGM / RUN BY / DATE 
IGS BROADCAST EPHEMERIS FILE                                COMMENT             
    0.4657D-08  0.1490D-07 -0.5960D-07 -0.1192D-06          ION ALPHA           
    0.8192D+05  0.8192D+05 -0.6554D+05 -0.5243D+06          ION BETA            
   -0.838190317154D-08-0.213162820728D-13   503808      566 DELTA-UTC: A0,A1,T,W
    15                                                      LEAP SECONDS        
                                                            END OF HEADER       
10 10  7  1 12  0  0.0-0.459449365735D-04-0.909494701773D-12 0.000000000000D+00
    0.100000000000D+02-0.117187500000D+02 0.495484924650D-08-0.290090863133D+01
   -0.771135091782D-06 0.918042380363D-02 0.658445060253D-05 0.515352363014D+04
    0.388800000000D+06-0.447034835815D-07-0.189377287913D+00-0.245869159698D-06
    0.953147594355D+00 0.249750000000D+03 0.665834584146D+00-0.812998150351D-08
   -0.299298181256D-09 0.100000000000D+01 0.159000000000D+04 0.000000000000D+00
    0.200000000000D+01 0.000000000000D+00-0.279396772385D-08 0.100000000000D+02
    0.381600000000D+06 0.000000000000D+00 0.000000000000D+00 0.000000000000D+00
11 10  7  1 12  0  0.0-0.726906582713D-04-0.261479726760D-11 0.000000000000D+00
    0.140000000000D+02 0.335625000000D+02 0.642205321858D-08-0.517232666188D-01
    0.186450779438D-05 0.107364678988D-01 0.733137130737D-05 0.515374745369D+04
    0.388800000000D+06 0.242143869400D-07-0.149541818247D+01 0.130385160446D-06
    0.887928813365D+00 0.201437500000D+03 0.813375203313D+00-0.908502128475D-08
    0.381087302387D-09 0.100000000000D+01 0.159000000000D+04 0.000000000000D+00
    0.200000000000D+01 0.000000000000D+00-0.116415321827D-07 0.140000000000D+02
    0.381600000000D+06 0.000000000000D+00 0.000000000000D+00 0.000000000000D+00
12 10  7  1 12  0  0.0-0.982577912509D-04 0.409272615798D-11 0.000000000000D+00
    0.940000000000D+02-0.745937500000D+02 0.435875298813D-08 0.161418454012D-01
   -0.400096178055D-05 0.346811022609D-02 0.549107789993D-05 0.515366353416D+04
    0.388800000000D+06 0.484287738800D-07 0.294024588845D+01-0.409781932831D-07
    0.971537450377D+00 0.280312500000D+03-0.393578787005D+00-0.814569644381D-08
   -0.272868508926D-09 0.100000000000D+01 0.159000000000D+04 0.000000000000D+00
    0.200000000000D+01 0.000000000000D+00-0.116415321827D-07 0.940000000000D+02
    0.381618000000D+06 0.400000000000D+01 0.000000000000D+00 0.000000000000D+00
13 10  7  1 12  0  0.0 0.302464235574D-03-0.568434188608D-12 0.000000000000D+00
    0.300000000000D+02 0.356250000000D+02 0.372265506353D-08 0.250906674209D+01
    0.196136534214D-05 0.449349090923D-02 0.925175845623D-05 0.515374256706D+04
    0.388800000000D+06 0.670552253723D-07 0.905207757194D+00-0.912696123123D-07
    0.992727640280D+00 0.212812500000D+03 0.175723483172D+01-0.757745848870D-08
   -0.157149403046D-09 0.100000000000D+01 0.159000000000D+04 0.000000000000D+00
    0.200000000000D+01 0.000000000000D+00-0.107102096081D-07 0.300000000000D+02
    0.381600000000D+06 0.000000000000D+00 0.000000000000D+00 0.000000000000D+00
14 10  7  1 12  0  0.0 0.630514696240D-04 0.420641299570D-11 0.000000000000D+00
    0.360000000000D+02 0.412812500000D+02 0.378622914021D-08 0.240819176868D+01
    0.202283263207D-05 0.519302929752D-02 0.104792416096D-04 0.515375964928D+04
    0.388800000000D+06-0.931322574616D-08 0.883186653229D+00-0.111758708954D-06
    0.985981181434D+00 0.188343750000D+03-0.214491787015D+01-0.756781522988D-08
   -0.166435504135D-09 0.100000000000D+01 0.159000000000D+04 0.000000000000D+00
    0.200000000000D+01 0.000000000000D+00-0.884756445885D-08 0.360000000000D+02
    0.384438000000D+06 0.400000000000D+01 0.000000000000D+00 0.000000000000D+00
16 10  7  1 12  0  0.0-0.854809768498D-04-0.363797880709D-11 0.000000000000D+00
    0.850000000000D+02-0.750937500000D+02 0.426589208402D-08-0.230748297106D+01
   -0.385940074921D-05 0.593215483241D-02 0.558607280254D-05 0.515379217720D+04
    0.388800000000D+06-0.521540641785D-07 0.295770647843D+01 0.279396772385D-07
    0.972743937935D+00 0.280406250000D+03-0.190649238129D+00-0.807105049461D-08
   -0.151077719779D-09 0.100000000000D+01 0.159000000000D+04 0.000000000000D+00
    0.200000000000D+01 0.000000000000D+00-0.977888703346D-08 0.850000000000D+02
    0.381618000000D+06 0.400000000000D+01 0.000000000000D+00 0.000000000000D+00
17 10  7  1 12  0  0.0 0.159621238708D-03 0.204636307899D-11 0.000000000000D+00
    0.210000000000D+02-0.287500000000D+02 0.416195907659D-08 0.287053013971D+01
   -0.136345624924D-05 0.548539170995D-02 0.103693455458D-04 0.515363019562D+04
    0.388800000000D+06-0.372529029846D-08-0.228286985568D+01-0.670552253723D-07
    0.960324743597D+00 0.178937500000D+03-0.250066743452D+01-0.772960768347D-08
    0.250367571672D-09 0.100000000000D+01 0.159000000000D+04 0.000000000000D+00
    0.200000000000D+01 0.000000000000D+00-0.102445483208D-07 0.210000000000D+02
    0.381600000000D+06 0.000000000000D+00 0.000000000000D+00 0.000000000000D+00
18 10  7  1 12  0  0.0 0.780946575105D-04 0.238742359215D-11 0.000000000000D+00
    0.190000000000D+02-0.186562500000D+02 0.533950812623D-08-0.197216318202D+01
   -0.101327896118D-05 0.116022668080D-01 0.614300370216D-05 0.515370008659D+04
    0.388800000000D+06 0.162050127983D-06-0.189946421562D+00 0.000000000000D+00
    0.937110723566D+00 0.244593750000D+03-0.232648235483D+01-0.833427572747D-08
   -0.172864343351D-09 0.100000000000D+01 0.159000000000D+04 0.000000000000D+00
    0.200000000000D+01 0.000000000000D+00-0.107102096081D-07 0.190000000000D+02
    0.381618000000D+06 0.400000000000D+01 0.000000000000D+00 0.000000000000D+00
19 10  7  1 12  0  0.0-0.463384203613D-04-0.284217094304D-11 0.000000000000D+00
    0.940000000000D+02-0.320000000000D+02 0.429875068875D-08 0.218066206734D+01
   -0.160746276379D-05 0.662265543360D-02 0.108703970909D-04 0.515376222992D+04
    0.388800000000D+06-0.186264514923D-07-0.222793663080D+01 0.819563865662D-07
    0.957896283494D+00 0.166656250000D+03-0.134300667808D+00-0.786139864317D-08
    0.160006660699D-09 0.100000000000D+01 0.159000000000D+04 0.000000000000D+00
    0.200000000000D+01 0.000000000000D+00-0.149011611938D-07 0.940000000000D+02
    0.381618000000D+06 0.400000000000D+01 0.000000000000D+00 0.000000000000D+00
20 10  7  1 12  0  0.0 0.539263710380D-04-0.454747350886D-12 0.000000000000D+00
    0.260000000000D+02-0.853125000000D+01 0.542058293189D-08-0.176790125710D+01
   -0.346451997757D-06 0.416611600667D-02 0.592879951000D-05 0.515357891655D+04
    0.388800000000D+06 0.856816768646D-07-0.243874661216D+00 0.651925802231D-07
    0.936985077921D+00 0.253718750000D+03 0.132268122344D+01-0.843463705078D-08
   -0.231438211759D-09 0.100000000000D+01 0.159000000000D+04 0.000000000000D+00
    0.200000000000D+01 0.000000000000D+00-0.791624188423D-08 0.260000000000D+02
    0.381600000000D+06 0.000000000000D+00 0.000000000000D+00 0.000000000000D+00
21 10  7  1 12  0  0.0-0.708862207830D-04-0.261479726760D-11 0.000000000000D+00
    0.200000000000D+02 0.435312500000D+02 0.547558522296D-08-0.862056412247D+00
    0.257790088654D-05 0.167143504368D-01 0.606290996075D-05 0.515365520668D+04
    0.388800000000D+06 0.335276126862D-06-0.124658529397D+01 0.238418579102D-06
    0.932067193528D+00 0.243656250000D+03-0.246597844599D+01-0.862571643857D-08
    0.411088552060D-09 0.100000000000D+01 0.159000000000D+04 0.000000000000D+00
    0.200000000000D+01 0.000000000000D+00-0.121071934700D-07 0.200000000000D+02
    0.381618000000D+06 0.400000000000D+01 0.000000000000D+00 0.000000000000D+00
22 10  7  1 12  0  0.0 0.168467871845D-03-0.795807864051D-12 0.000000000000D+00
    0.126000000000D+03-0.174375000000D+02 0.542451150665D-08-0.289295706300D+01
   -0.101327896118D-05 0.542361882981D-02 0.641308724880D-05 0.515371300697D+04
    0.388800000000D+06 0.143423676491D-06-0.185110960900D+00-0.428408384323D-07
    0.934795718611D+00 0.241375000000D+03-0.194528600342D+01-0.842213676577D-08
   -0.307869979510D-09 0.100000000000D+01 0.159000000000D+04 0.000000000000D+00
    0.200000000000D+01 0.000000000000D+00-0.176951289177D-07 0.126000000000D+03
    0.381618000000D+06 0.400000000000D+01 0.000000000000D+00 0.000000000000D+00
23 10  7  1 12  0  0.0 0.364819075912D-03-0.147792889038D-11 0.000000000000D+00
    0.100000000000D+03 0.349062500000D+02 0.432803742299D-08 0.167150673509D+01
    0.210851430893D-05 0.683584553190D-02 0.953860580921D-05 0.515367802811D+04
    0.388800000000D+06 0.670552253723D-07 0.843625288768D+00 0.782310962677D-07
    0.967809219744D+00 0.198656250000D+03 0.303568999354D+01-0.793711632704D-08
   -0.236081262304D-09 0.100000000000D+01 0.159000000000D+04 0.000000000000D+00
    0.200000000000D+01 0.000000000000D+00-0.200234353542D-07 0.100000000000D+03
    0.381600000000D+06 0.000000000000D+00 0.000000000000D+00 0.000000000000D+00
24 10  7  1 12  0  0.0 0.300739891827D-03 0.318323145621D-11 0.000000000000D+00
    0.750000000000D+02 0.395312500000D+02 0.502199482000D-08 0.259074282921D+01
    0.193342566490D-05 0.567115808372D-02 0.642053782940D-05 0.515483720207D+04
    0.388800000000D+06 0.298023223877D-07-0.120746384799D+01 0.149011611938D-06
    0.948680177549D+00 0.244312500000D+03-0.464434832112D+00-0.825248669400D-08
    0.365015212500D-09 0.100000000000D+01 0.159000000000D+04 0.000000000000D+00
    0.200000000000D+01 0.000000000000D+00-0.139698386192D-08 0.750000000000D+02
    0.381618000000D+06 0.400000000000D+01 0.000000000000D+00 0.000000000000D+00
